CCSDS_OMM_VERS = 2.0
CREATION_DATE  = 
ORIGINATOR     = 

OBJECT_NAME    = PROGRESS-MS 32
OBJECT_ID      = 2025-204A
CENTER_NAME    = EARTH
REF_FRAME      = TEME
TIME_SYSTEM    = UTC
MEAN_ELEMENT_THEORY = SGP/SGP4

EPOCH          = 2025-11-17T21:36:37.629792
MEAN_MOTION    = 15.49772275
ECCENTRICITY   = .000418
INCLINATION    = 51.6331
RA_OF_ASC_NODE = 265.4223
ARG_OF_PERICENTER = 82.0364
MEAN_ANOMALY   = 278.1099

EPHEMERIS_TYPE = 0
CLASSIFICATION_TYPE = U
NORAD_CAT_ID   = 65586
ELEMENT_SET_NO = 999
REV_AT_EPOCH   = 27
BSTAR          = .26898773E-3
MEAN_MOTION_DOT = .14804E-3
MEAN_MOTION_DDOT = 0

CCSDS_OMM_VERS = 2.0
CREATION_DATE  = 
ORIGINATOR     = 

OBJECT_NAME    = CYGNUS NG-23
OBJECT_ID      = 2025-208A
CENTER_NAME    = EARTH
REF_FRAME      = TEME
TIME_SYSTEM    = UTC
MEAN_ELEMENT_THEORY = SGP/SGP4

EPOCH          = 2025-11-17T21:36:37.629792
MEAN_MOTION    = 15.49772275
ECCENTRICITY   = .000418
INCLINATION    = 51.6331
RA_OF_ASC_NODE = 265.4223
ARG_OF_PERICENTER = 82.0364
MEAN_ANOMALY   = 278.1099

EPHEMERIS_TYPE = 0
CLASSIFICATION_TYPE = U
NORAD_CAT_ID   = 65616
ELEMENT_SET_NO = 999
REV_AT_EPOCH   = 22
BSTAR          = .26898773E-3
MEAN_MOTION_DOT = .14804E-3
MEAN_MOTION_DDOT = 0

CCSDS_OMM_VERS = 2.0
CREATION_DATE  = 
ORIGINATOR     = 

OBJECT_NAME    = DRAGONFLY
OBJECT_ID      = 1998-067XH
CENTER_NAME    = EARTH
REF_FRAME      = TEME
TIME_SYSTEM    = UTC
MEAN_ELEMENT_THEORY = SGP/SGP4

EPOCH          = 2025-11-18T01:37:41.667168
MEAN_MOTION    = 15.64137736
ECCENTRICITY   = .00051285
INCLINATION    = 51.6305
RA_OF_ASC_NODE = 261.2981
ARG_OF_PERICENTER = 140.2196
MEAN_ANOMALY   = 219.9175

EPHEMERIS_TYPE = 0
CLASSIFICATION_TYPE = U
NORAD_CAT_ID   = 65729
ELEMENT_SET_NO = 999
REV_AT_EPOCH   = 929
BSTAR          = .12274648E-2
MEAN_MOTION_DOT = .120116E-2
MEAN_MOTION_DDOT = 0

CCSDS_OMM_VERS = 2.0
CREATION_DATE  = 
ORIGINATOR     = 

OBJECT_NAME    = 1998-067XJ
OBJECT_ID      = 1998-067XJ
CENTER_NAME    = EARTH
REF_FRAME      = TEME
TIME_SYSTEM    = UTC
MEAN_ELEMENT_THEORY = SGP/SGP4

EPOCH          = 2025-11-18T02:24:45.490464
MEAN_MOTION    = 15.82118198
ECCENTRICITY   = .00118413
INCLINATION    = 51.6231
RA_OF_ASC_NODE = 258.4854
ARG_OF_PERICENTER = 139.6096
MEAN_ANOMALY   = 220.5788

EPHEMERIS_TYPE = 0
CLASSIFICATION_TYPE = U
NORAD_CAT_ID   = 65730
ELEMENT_SET_NO = 999
REV_AT_EPOCH   = 933
BSTAR          = .25348319E-2
MEAN_MOTION_DOT = .56832E-2
MEAN_MOTION_DDOT = 0

CCSDS_OMM_VERS = 2.0
CREATION_DATE  = 
ORIGINATOR     = 

OBJECT_NAME    = 1998-067XK
OBJECT_ID      = 1998-067XK
CENTER_NAME    = EARTH
REF_FRAME      = TEME
TIME_SYSTEM    = UTC
MEAN_ELEMENT_THEORY = SGP/SGP4

EPOCH          = 2025-11-18T01:20:11.062176
MEAN_MOTION    = 15.60805960
ECCENTRICITY   = .00059408
INCLINATION    = 51.6317
RA_OF_ASC_NODE = 261.9663
ARG_OF_PERICENTER = 119.8279
MEAN_ANOMALY   = 240.3305

EPHEMERIS_TYPE = 0
CLASSIFICATION_TYPE = U
NORAD_CAT_ID   = 65731
ELEMENT_SET_NO = 999
REV_AT_EPOCH   = 928
BSTAR          = .93892542E-3
MEAN_MOTION_DOT = .80151E-3
MEAN_MOTION_DDOT = 0

CCSDS_OMM_VERS = 2.0
CREATION_DATE  = 
ORIGINATOR     = 

OBJECT_NAME    = RSP-03
OBJECT_ID      = 1998-067XL
CENTER_NAME    = EARTH
REF_FRAME      = TEME
TIME_SYSTEM    = UTC
MEAN_ELEMENT_THEORY = SGP/SGP4

EPOCH          = 2025-11-18T02:16:04.914912
MEAN_MOTION    = 15.62410883
ECCENTRICITY   = .00066444
INCLINATION    = 51.6299
RA_OF_ASC_NODE = 261.4708
ARG_OF_PERICENTER = 121.8909
MEAN_ANOMALY   = 238.2732

EPHEMERIS_TYPE = 0
CLASSIFICATION_TYPE = U
NORAD_CAT_ID   = 65732
ELEMENT_SET_NO = 999
REV_AT_EPOCH   = 930
BSTAR          = .11056594E-2
MEAN_MOTION_DOT = .100833E-2
MEAN_MOTION_DDOT = 0

CCSDS_OMM_VERS = 2.0
CREATION_DATE  = 
ORIGINATOR     = 

OBJECT_NAME    = GHS-01
OBJECT_ID      = 1998-067XM
CENTER_NAME    = EARTH
REF_FRAME      = TEME
TIME_SYSTEM    = UTC
MEAN_ELEMENT_THEORY = SGP/SGP4

EPOCH          = 2025-11-18T01:11:28.908960
MEAN_MOTION    = 15.65393457
ECCENTRICITY   = .00060144
INCLINATION    = 51.6302
RA_OF_ASC_NODE = 261.1742
ARG_OF_PERICENTER = 142.2508
MEAN_ANOMALY   = 217.8910

EPHEMERIS_TYPE = 0
CLASSIFICATION_TYPE = U
NORAD_CAT_ID   = 65733
ELEMENT_SET_NO = 999
REV_AT_EPOCH   = 930
BSTAR          = .1350965E-2
MEAN_MOTION_DOT = .139401E-2
MEAN_MOTION_DDOT = 0

CCSDS_OMM_VERS = 2.0
CREATION_DATE  = 
ORIGINATOR     = 

OBJECT_NAME    = YOTSUBA-KULOVER
OBJECT_ID      = 1998-067XN
CENTER_NAME    = EARTH
REF_FRAME      = TEME
TIME_SYSTEM    = UTC
MEAN_ELEMENT_THEORY = SGP/SGP4

EPOCH          = 2025-11-18T03:18:55.410912
MEAN_MOTION    = 15.55773352
ECCENTRICITY   = .00024789
INCLINATION    = 51.6310
RA_OF_ASC_NODE = 263.2613
ARG_OF_PERICENTER = 89.2558
MEAN_ANOMALY   = 270.8718

EPHEMERIS_TYPE = 0
CLASSIFICATION_TYPE = U
NORAD_CAT_ID   = 65941
ELEMENT_SET_NO = 999
REV_AT_EPOCH   = 602
BSTAR          = .93964258E-3
MEAN_MOTION_DOT = .6614E-3
MEAN_MOTION_DDOT = 0

CCSDS_OMM_VERS = 2.0
CREATION_DATE  = 
ORIGINATOR     = 

OBJECT_NAME    = BOTAN
OBJECT_ID      = 1998-067XP
CENTER_NAME    = EARTH
REF_FRAME      = TEME
TIME_SYSTEM    = UTC
MEAN_ELEMENT_THEORY = SGP/SGP4

EPOCH          = 2025-11-18T01:18:41.537088
MEAN_MOTION    = 15.57503266
ECCENTRICITY   = .00046889
INCLINATION    = 51.6309
RA_OF_ASC_NODE = 263.4546
ARG_OF_PERICENTER = 96.6603
MEAN_ANOMALY   = 263.4923

EPHEMERIS_TYPE = 0
CLASSIFICATION_TYPE = U
NORAD_CAT_ID   = 65942
ELEMENT_SET_NO = 999
REV_AT_EPOCH   = 601
BSTAR          = .11671953E-2
MEAN_MOTION_DOT = .88033E-3
MEAN_MOTION_DDOT = 0

CCSDS_OMM_VERS = 2.0
CREATION_DATE  = 
ORIGINATOR     = 

OBJECT_NAME    = E-KAGAKU-1
OBJECT_ID      = 1998-067XQ
CENTER_NAME    = EARTH
REF_FRAME      = TEME
TIME_SYSTEM    = UTC
MEAN_ELEMENT_THEORY = SGP/SGP4

EPOCH          = 2025-11-18T03:18:21.987936
MEAN_MOTION    = 15.55753809
ECCENTRICITY   = .0004114
INCLINATION    = 51.6318
RA_OF_ASC_NODE = 263.2607
ARG_OF_PERICENTER = 78.5664
MEAN_ANOMALY   = 281.5789

EPHEMERIS_TYPE = 0
CLASSIFICATION_TYPE = U
NORAD_CAT_ID   = 65943
ELEMENT_SET_NO = 999
REV_AT_EPOCH   = 602
BSTAR          = .90516796E-3
MEAN_MOTION_DOT = .63641E-3
MEAN_MOTION_DDOT = 0

CCSDS_OMM_VERS = 2.0
CREATION_DATE  = 
ORIGINATOR     = 

OBJECT_NAME    = HRC MONOBLOCK CAMERA
OBJECT_ID      = 1998-067XR
CENTER_NAME    = EARTH
REF_FRAME      = TEME
TIME_SYSTEM    = UTC
MEAN_ELEMENT_THEORY = SGP/SGP4

EPOCH          = 2025-11-18T01:41:17.022624
MEAN_MOTION    = 15.52052951
ECCENTRICITY   = .00047749
INCLINATION    = 51.6317
RA_OF_ASC_NODE = 264.3061
ARG_OF_PERICENTER = 84.7035
MEAN_ANOMALY   = 275.4499

EPHEMERIS_TYPE = 0
CLASSIFICATION_TYPE = U
NORAD_CAT_ID   = 66052
ELEMENT_SET_NO = 999
REV_AT_EPOCH   = 500
BSTAR          = .6233116E-3
MEAN_MOTION_DOT = .38002E-3
MEAN_MOTION_DDOT = 0

CCSDS_OMM_VERS = 2.0
CREATION_DATE  = 
ORIGINATOR     = 

OBJECT_NAME    = HTV-X1
OBJECT_ID      = 2025-241A
CENTER_NAME    = EARTH
REF_FRAME      = TEME
TIME_SYSTEM    = UTC
MEAN_ELEMENT_THEORY = SGP/SGP4

EPOCH          = 2025-11-17T21:36:37.629792
MEAN_MOTION    = 15.49772275
ECCENTRICITY   = .000418
INCLINATION    = 51.6331
RA_OF_ASC_NODE = 265.4223
ARG_OF_PERICENTER = 82.0364
MEAN_ANOMALY   = 278.1099

EPHEMERIS_TYPE = 0
CLASSIFICATION_TYPE = U
NORAD_CAT_ID   = 66174
ELEMENT_SET_NO = 999
REV_AT_EPOCH   = 145
BSTAR          = .26898773E-3
MEAN_MOTION_DOT = .14804E-3
MEAN_MOTION_DDOT = 0

